satname,norad_id,inclination_deg,eccentricity,mean_motion_rev_per_day,perigee_km,apogee_km,l1,l2
STARLINK-1548,46054,53.1582,0.0001237,15.31696621,469.9028605370413,471.59727519763146,1 46054U 20055AD  26134.50813108  .00000939  00000+0  42018-4 0  9992,2 46054  53.1582 168.0167 0001237  86.7480 273.3663 15.31696621319159
STARLINK-1554,46055,53.1576,0.0001125,15.31721061,469.90672260084557,471.4477057990398,1 46055U 20055AE  26134.35896912  .00004260  00000+0  14887-3 0  9993,2 46055  53.1576 168.6530 0001125  90.9712 269.1419 15.31721061319131
STARLINK-1564,46058,53.1594,0.0001302,15.30200266,474.3219688553563,476.1065815274169,1 46058U 20055AH  26134.38962106  .00000531  00000+0  30043-4 0  9998,2 46058  53.1594 169.1993 0001302  95.7179 264.3971 15.30200266319127
STARLINK-1570,46059,53.1602,0.000121,15.31710336,469.8804739324478,471.53789470905394,1 46059U 20055AJ  26134.38690826  .00001445  00000+0  58301-4 0  9998,2 46059  53.1602 168.4085 0001210  95.3894 264.7246 15.31710336319090
STARLINK-1572,46060,53.1596,0.0001133,15.30201318,474.4346497681254,475.9876184553141,1 46060U 20055AK  26134.37061477  .00001294  00000+0  55812-4 0  9999,2 46060  53.1596 169.0403 0001133  97.5114 262.6016 15.30201318319094
STARLINK-1573,46061,53.1591,0.0001133,15.31702683,469.9560204965346,471.50797421133393,1 46061U 20055AL  26134.96017797 -.00000698  00000+0 -10738-4 0  9998,2 46061  53.1591 165.7055 0001133  91.2274 268.8857 15.31702683319222
STARLINK-1577,46063,53.1597,0.0001168,15.31704312,469.9271940764638,471.5270887398974,1 46063U 20055AN  26134.46613923  .00000958  00000+0  42641-4 0  9993,2 46063  53.1597 168.0006 0001168  77.4868 282.6264 15.31704312319143
STARLINK-1583,46064,53.1589,0.0001668,15.30196238,474.0831610974419,476.36944309502087,1 46064U 20055AP  26134.40007518  .00001002  00000+0  45966-4 0  9999,2 46064  53.1589 168.6450 0001668  83.6064 276.5127 15.30196238319125
STARLINK-1536,46070,53.1605,0.000124,15.31714723,469.84685177504343,471.54536238560013,1 46070U 20055AV  26134.35097153  .00001480  00000+0  59438-4 0  9993,2 46070  53.1605 156.4230 0001240  77.2182 282.8958 15.31714723319294
STARLINK-1542,46073,53.1579,0.0001201,15.31677493,469.9845300580437,471.62964642803854,1 46073U 20055AY  26135.00002315  .00042242  00000+0  13662-2 0  9993,2 46073  53.1579 156.3664 0001201  87.1299 119.4263 15.31677493  5808
STARLINK-1549,46074,53.0484,0.0003624,15.27590064,480.5324780483397,485.5054438888501,1 46074U 20055AZ  26134.34644604  .00029365  00000+0  10825-2 0  9992,2 46074  53.0484 156.2792 0003624  31.4383 328.6831 15.27590064319278
STARLINK-1551,46075,53.1594,0.0001177,15.30197644,474.4154636531348,476.02874438622166,1 46075U 20055BA  26134.44586672  .00001206  00000+0  52840-4 0  9993,2 46075  53.1594 155.6308 0001177  94.4377 265.6758 15.30197644319304
STARLINK-1552,46076,53.1596,0.0001204,15.31723444,469.845514396804,471.49470714907784,1 46076U 20055BB  26134.32794774  .00007406  00000+0  25000-3 0  9990,2 46076  53.1596 156.0493 0001204  81.3970 278.7168 15.31723444319272
STARLINK-1559,46077,53.0218,0.0003093,15.35978688,455.90064428960886,460.1294879577126,1 46077U 20055BC  26134.67049147  .00026547  00000+0  75507-3 0  9990,2 46077  53.0218 125.2228 0003093  23.8010 336.3134 15.35978688319709
STARLINK-1566,46079,53.1601,0.0001173,15.31716419,469.88768394779254,471.49441900866987,1 46079U 20055BE  26134.46307789  .00001993  00000+0  75945-4 0  9993,2 46079  53.1601 155.2740 0001173  81.3042 278.8092 15.31716419319319
STARLINK-1568,46080,53.0584,0.0004694,15.51965206,407.80195768456633,414.1755889605611,1 46080U 20055BF  26134.55258655  .00028057  00000+0  46478-3 0  9990,2 46080  53.0584  77.3610 0004694  25.2775 334.8463 15.51965206320400
STARLINK-1578,46082,53.1596,0.0001535,15.31711975,469.6530014670061,471.75559574567797,1 46082U 20055BH  26134.46747100  .00000629  00000+0  32014-4 0  9997,2 46082  53.1596 155.7710 0001535  64.7223 295.3937 15.31711975319309
STARLINK-1579,46083,53.1601,0.0001182,15.31708072,469.9063987026575,471.52546753604565,1 46083U 20055BJ  26134.45376955  .00001136  00000+0  48341-4 0  9997,2 46083  53.1601 155.3682 0001182  79.7425 280.3710 15.31708072319306
STARLINK-1622,46128,53.0189,0.0004816,15.7725033,335.0006158829101,341.46982560593096,1 46128U 20057M   26134.75075979  .00091400  00000+0  54337-3 0  9998,2 46128  53.0189 257.0926 0004816 347.7442  12.3459 15.77250330317749
STARLINK-1623,46129,53.0448,0.0001575,15.69661366,358.8046904442217,360.92716136588206,1 46129U 20057N   26133.44079978  .00066901  00000+0  55366-3 0  9998,2 46129  53.0448 300.2010 0001575 299.8088  60.2771 15.69661366317032
STARLINK-1624,46130,53.0301,0.0011266,16.0031149,266.0616261228479,281.04921948991523,1 46130U 20057P   26134.85580010  .00456006  10108-3  85235-3 0  9991,2 46130  53.0301 259.8938 0011266 309.1791  50.8236 16.00311490318964
STARLINK-1596,46141,53.0382,0.0003901,15.55474271,398.12987910374704,403.4187857252955,1 46141U 20057AA  26134.76653011  .00063687  00000+0  91635-3 0  9991,2 46141  53.0382 273.5614 0003901 308.3091  51.7568 15.55474271317525
STARLINK-1597,46142,53.0445,0.0001963,15.69382187,359.34216219926566,361.98781586015866,1 46142U 20057AB  26133.73117821  .00069972  00000+0  58533-3 0  9995,2 46142  53.0445 338.4586 0001963  68.7810 291.3416 15.69382187316518
STARLINK-1606,46144,53.0382,0.0004205,15.80487282,326.24130060073094,331.88205468863,1 46144U 20057AD  26134.80907740  .00127806  00000+0  65262-3 0  9991,2 46144  53.0382 288.5089 0004205 265.4751  94.5789 15.80487282305569
STARLINK-1608,46146,53.1615,0.0001369,15.33771858,463.6340810396523,465.5076144483646,1 46146U 20057AF  26134.36673054  .00033941  00000+0  10314-2 0  9995,2 46146  53.1615   3.7100 0001369 197.8979 162.1975 15.33771858316249
STARLINK-1667,46155,53.016,0.0006613,15.80257725,325.2753118121809,334.1471118571526,1 46155U 20057AQ  26135.00002315  .00032354  00000+0  17138-3 0  9992,2 46155  53.0160 255.7861 0006613 343.1402  14.7986 15.80257725  5894
STARLINK-1545,46156,53.0415,0.0003966,15.75859407,339.5214700416427,344.85203084049226,1 46156U 20057AR  26134.85962676  .00096625  00000+0  61028-3 0  9998,2 46156  53.0415 291.7640 0003966 236.3883 123.6758 15.75859407318520
STARLINK-1595,46159,53.0444,9.47e-05,15.6788883,364.3047159744556,365.58185538056296,1 46159U 20057AU  26134.94404606  .00052885  00000+0  47253-3 0  9999,2 46159  53.0444 334.8872 0000947  76.8089 283.3032 15.67888830317938
